{
  "links" : {
    "next" : "https://api.nasa.gov/neo/rest/v1/feed?start_date=2005-10-09&end_date=2005-10-09&detailed=true&api_key=t0TVs3DtDT2H8Oy2Zy8m2eVrNsAVKAexjcZXUckd",
    "prev" : "https://api.nasa.gov/neo/rest/v1/feed?start_date=2005-10-07&end_date=2005-10-07&detailed=true&api_key=t0TVs3DtDT2H8Oy2Zy8m2eVrNsAVKAexjcZXUckd",
    "self" : "https://api.nasa.gov/neo/rest/v1/feed?start_date=2005-10-08&end_date=2005-10-08&detailed=true&api_key=t0TVs3DtDT2H8Oy2Zy8m2eVrNsAVKAexjcZXUckd"
  },
  "element_count" : 3,
  "near_earth_objects" : {
    "2005-10-08" : [ {
      "links" : {
        "self" : "https://api.nasa.gov/neo/rest/v1/neo/3293789?api_key=t0TVs3DtDT2H8Oy2Zy8m2eVrNsAVKAexjcZXUckd"
      },
      "neo_reference_id" : "3293789",
      "name" : "(2005 TP45)",
      "nasa_jpl_url" : "http://ssd.jpl.nasa.gov/sbdb.cgi?sstr=3293789",
      "absolute_magnitude_h" : 20.9,
      "estimated_diameter" : {
        "kilometers" : {
          "estimated_diameter_min" : 0.1756123185,
          "estimated_diameter_max" : 0.3926810818
        },
        "meters" : {
          "estimated_diameter_min" : 175.6123184804,
          "estimated_diameter_max" : 392.6810818086
        },
        "miles" : {
          "estimated_diameter_min" : 0.1091204019,
          "estimated_diameter_max" : 0.2440006365
        },
        "feet" : {
          "estimated_diameter_min" : 576.1559189633,
          "estimated_diameter_max" : 1288.3238004408
        }
      },
      "is_potentially_hazardous_asteroid" : false,
      "close_approach_data" : [ {
        "close_approach_date" : "2005-10-08",
        "epoch_date_close_approach" : 1128754800000,
        "relative_velocity" : {
          "kilometers_per_second" : "11.5000731777",
          "kilometers_per_hour" : "41400.2634396023",
          "miles_per_hour" : "25724.513691124"
        },
        "miss_distance" : {
          "astronomical" : "0.1468269684",
          "lunar" : "57.1156921387",
          "kilometers" : "21965002",
          "miles" : "13648419"
        },
        "orbiting_body" : "Earth"
      } ],
      "orbital_data" : {
        "orbit_id" : "18",
        "orbit_determination_date" : "2017-04-06 09:10:17",
        "orbit_uncertainty" : "1",
        "minimum_orbit_intersection" : ".13527",
        "jupiter_tisserand_invariant" : "4.333",
        "epoch_osculation" : "2458000.5",
        "eccentricity" : ".2710754074773427",
        "semi_major_axis" : "1.551193965498546",
        "inclination" : "21.37971937822925",
        "ascending_node_longitude" : "13.7582669740409",
        "orbital_period" : "705.6633900236828",
        "perihelion_distance" : "1.130703429224633",
        "perihelion_argument" : "10.58991392937039",
        "aphelion_distance" : "1.97168450177246",
        "perihelion_time" : "2457899.189762115752",
        "mean_anomaly" : "51.68425364550269",
        "mean_motion" : ".5101582497965751",
        "equinox" : "J2000"
      }
    }, {
      "links" : {
        "self" : "https://api.nasa.gov/neo/rest/v1/neo/3293830?api_key=t0TVs3DtDT2H8Oy2Zy8m2eVrNsAVKAexjcZXUckd"
      },
      "neo_reference_id" : "3293830",
      "name" : "(2005 TD49)",
      "nasa_jpl_url" : "http://ssd.jpl.nasa.gov/sbdb.cgi?sstr=3293830",
      "absolute_magnitude_h" : 26.4,
      "estimated_diameter" : {
        "kilometers" : {
          "estimated_diameter_min" : 0.0139493823,
          "estimated_diameter_max" : 0.0311917671
        },
        "meters" : {
          "estimated_diameter_min" : 13.9493822934,
          "estimated_diameter_max" : 31.1917670523
        },
        "miles" : {
          "estimated_diameter_min" : 0.0086677416,
          "estimated_diameter_max" : 0.0193816595
        },
        "feet" : {
          "estimated_diameter_min" : 45.7656914036,
          "estimated_diameter_max" : 102.3351970157
        }
      },
      "is_potentially_hazardous_asteroid" : false,
      "close_approach_data" : [ {
        "close_approach_date" : "2005-10-08",
        "epoch_date_close_approach" : 1128754800000,
        "relative_velocity" : {
          "kilometers_per_second" : "8.0807923572",
          "kilometers_per_hour" : "29090.8524859338",
          "miles_per_hour" : "18075.9244238292"
        },
        "miss_distance" : {
          "astronomical" : "0.0254661217",
          "lunar" : "9.9063215256",
          "kilometers" : "3809677.5",
          "miles" : "2367224"
        },
        "orbiting_body" : "Earth"
      } ],
      "orbital_data" : {
        "orbit_id" : "12",
        "orbit_determination_date" : "2017-04-06 09:10:16",
        "orbit_uncertainty" : "5",
        "minimum_orbit_intersection" : ".00383426",
        "jupiter_tisserand_invariant" : "3.059",
        "epoch_osculation" : "2458000.5",
        "eccentricity" : ".6273454219684461",
        "semi_major_axis" : "2.681098621986719",
        "inclination" : ".1183394713466754",
        "ascending_node_longitude" : "197.7054506311686",
        "orbital_period" : "1603.49500359406",
        "perihelion_distance" : ".9991236756374415",
        "perihelion_argument" : "190.5302266899781",
        "aphelion_distance" : "4.363073568335997",
        "perihelion_time" : "2458489.314991890665",
        "mean_anomaly" : "250.256348360167",
        "mean_motion" : ".2245095863679644",
        "equinox" : "J2000"
      }
    }, {
      "links" : {
        "self" : "https://api.nasa.gov/neo/rest/v1/neo/3293923?api_key=t0TVs3DtDT2H8Oy2Zy8m2eVrNsAVKAexjcZXUckd"
      },
      "neo_reference_id" : "3293923",
      "name" : "(2005 TH50)",
      "nasa_jpl_url" : "http://ssd.jpl.nasa.gov/sbdb.cgi?sstr=3293923",
      "absolute_magnitude_h" : 28.0,
      "estimated_diameter" : {
        "kilometers" : {
          "estimated_diameter_min" : 0.0066765941,
          "estimated_diameter_max" : 0.0149293183
        },
        "meters" : {
          "estimated_diameter_min" : 6.676594135,
          "estimated_diameter_max" : 14.9293183439
        },
        "miles" : {
          "estimated_diameter_min" : 0.004148642,
          "estimated_diameter_max" : 0.0092766455
        },
        "feet" : {
          "estimated_diameter_min" : 21.9048371017,
          "estimated_diameter_max" : 48.9807047955
        }
      },
      "is_potentially_hazardous_asteroid" : false,
      "close_approach_data" : [ {
        "close_approach_date" : "2005-10-08",
        "epoch_date_close_approach" : 1128754800000,
        "relative_velocity" : {
          "kilometers_per_second" : "4.5212083185",
          "kilometers_per_hour" : "16276.3499464275",
          "miles_per_hour" : "10113.4908875454"
        },
        "miss_distance" : {
          "astronomical" : "0.012663087",
          "lunar" : "4.9259409904",
          "kilometers" : "1894370.875",
          "miles" : "1177107.5"
        },
        "orbiting_body" : "Earth"
      } ],
      "orbital_data" : {
        "orbit_id" : "9",
        "orbit_determination_date" : "2017-04-06 09:10:15",
        "orbit_uncertainty" : "8",
        "minimum_orbit_intersection" : ".00137649",
        "jupiter_tisserand_invariant" : "6.996",
        "epoch_osculation" : "2453654.5",
        "eccentricity" : ".2258251142600251",
        "semi_major_axis" : ".8373336543121461",
        "inclination" : ".7337004861976874",
        "ascending_node_longitude" : "196.8361283725258",
        "orbital_period" : "279.8634909454765",
        "perihelion_distance" : ".6482426861533414",
        "perihelion_argument" : "18.17716860434194",
        "aphelion_distance" : "1.026424622470951",
        "perihelion_time" : "2453535.060510689612",
        "mean_anomaly" : "153.6399621346704",
        "mean_motion" : "1.286341418753101",
        "equinox" : "J2000"
      }
    } ]
  }
}